{
"type": "FeatureCollection",
"name": "river-flow-clean",
"crs": { "type": "name", "properties": { "name": "urn:ogc:def:crs:OGC:1.3:CRS84" } },
"features": [
{"type":"Feature","properties":{"River":"Danube basin (Hungary / Romania / Serbia / Bulgaria)  (8 locations)","Country":null,"Location":null,"Latitude":null,"Longitude":null,"Description":null,"Image URL":null,"Article URL":null,"Severity":null,"Date":null,"EFAS Jun-2026 Flow Category (Copernicus C3S)":null},"geometry":null},
{"type":"Feature","properties":{"River":"Danube","Country":"Hungary","Location":"Budapest","Latitude":47.4979,"Longitude":19.0402,"Description":"Record-low level (~23-31 cm); Margaret Bridge closed after WWII bomb exposed","Image URL":"Water Level of Danube River hits record low in Budapest - Global Times","Article URL":"https://www.globaltimes.cn/page/202607/1367050.shtml","Severity":"High","Date":"2026-07-29","EFAS Jun-2026 Flow Category (Copernicus C3S)":"Lowest"},"geometry":{"type":"Point","coordinates":[19.0402,47.4979]}},
{"type":"Feature","properties":{"River":"Danube","Country":"Romania","Location":"Corabia","Latitude":43.7746,"Longitude":24.5015,"Description":"Exposed sandbanks amid extended drought","Image URL":"https://www.usnews.com/object/image/0000019f-b16f-d730-adff-f76fe1930000/941c21623afa49d0a7dc33ac519c8dd8Romania_Danube_Drought_724_7.jpg?update-time=1785339222000&size=responsive970","Article URL":"https://www.usnews.com/news/world/articles/2026-07-30/record-low-danube-river-affects-tourism-and-industry-as-drought-and-heat-grip-central-europe","Severity":"High","Date":"2026-07-30","EFAS Jun-2026 Flow Category (Copernicus C3S)":"Much lower than average"},"geometry":{"type":"Point","coordinates":[24.5015,43.7746]}},
{"type":"Feature","properties":{"River":"Danube","Country":"Serbia","Location":"Novi Sad","Latitude":45.2671,"Longitude":19.8335,"Description":"Boats stranded on dry riverbed","Image URL":"https://twt-thumbs.washtimes.com/media/image/2026/07/30/Serbia_Danube_Drought_3899__s878x586.jpg?c7307a07ca8f164441d6120c2cbb8ce2e537d255","Article URL":"https://www.washingtontimes.com/news/2026/aug/1/drought-heat-grip-central-europe-record-low-danube-river-affects/","Severity":"High","Date":"2026-08-01","EFAS Jun-2026 Flow Category (Copernicus C3S)":"Much lower than average"},"geometry":{"type":"Point","coordinates":[19.8335,45.2671]}},
{"type":"Feature","properties":{"River":"Danube","Country":"Serbia","Location":"Prahovo","Latitude":44.2786,"Longitude":22.5926,"Description":"WWII German warship wrecks resurfaced near Djerdap II dam; people swimming near wreck","Image URL":"https://media.cnn.com/api/v1/images/stellar/prod/screenshot-2026-08-05-125856.png?q=w_1110,c_fill/f_webp","Article URL":"https://cnnespanol.cnn.com/2026/08/05/clima-y-tiempo/calor-extremo-seca-rios-europa-espacio-trax","Severity":"High","Date":"2026-07-30","EFAS Jun-2026 Flow Category (Copernicus C3S)":"Lower than average"},"geometry":{"type":"Point","coordinates":[22.5926,44.2786]}},
{"type":"Feature","properties":{"River":"Danube","Country":"Romania","Location":"Cernavodă","Latitude":44.3398,"Longitude":28.0365,"Description":"Nuclear reactor unit shut down; second at risk, record-low cooling water","Image URL":"https://insideclimatenews.org/wp-content/uploads/2026/08/GettyImages-2288117286.jpg","Article URL":"https://insideclimatenews.org/news/04082026/europe-drought-threatens-nuclear-plant-commercial-traffic-drinking-water/","Severity":"High","Date":"2026-08-04","EFAS Jun-2026 Flow Category (Copernicus C3S)":"Much higher than average"},"geometry":{"type":"Point","coordinates":[28.0365,44.3398]}},
{"type":"Feature","properties":{"River":"Danube","Country":"Hungary","Location":"Paks","Latitude":46.6265,"Longitude":18.8597,"Description":"Sole nuclear plant shut for first time in 44-yr history, ~40% of national power capacity lost","Image URL":"https://www.insurancejournal.com/app/uploads/2026/08/paks-nuclear-plant-on-danube-in-hungary-getty-1536x1025.jpg","Article URL":"https://www.insurancejournal.com/news/international/2026/08/03/879929.htm","Severity":"High","Date":"2026-08-03","EFAS Jun-2026 Flow Category (Copernicus C3S)":"Lowest"},"geometry":{"type":"Point","coordinates":[18.8597,46.6265]}},
{"type":"Feature","properties":{"River":"Danube","Country":"Bulgaria","Location":"Vidin","Latitude":43.9906,"Longitude":22.8703,"Description":"Satellite before/after comparison (Aug 2023 vs Aug 2026) shows drastically reduced channel","Image URL":"https://media.cnn.com/api/v1/images/stellar/prod/2026-08-03-00-00-2026-08-03-23-59-sentinel-2-l2a-true-color-3-20260805200311611.jpg?c=16x9&q=h_720,w_1280,c_fill/f_webp","Article URL":"https://cnnespanol.cnn.com/2026/08/05/clima-y-tiempo/calor-extremo-seca-rios-europa-espacio-trax","Severity":"High","Date":"2026-08-05","EFAS Jun-2026 Flow Category (Copernicus C3S)":"Lower than average"},"geometry":{"type":"Point","coordinates":[22.8703,43.9906]}},
{"type":"Feature","properties":{"River":"Danube","Country":"Romania","Location":"Călărași","Latitude":44.2039,"Longitude":27.3306,"Description":"Cattle grazing on exposed river sand dunes","Image URL":"https://media.cnn.com/api/v1/images/stellar/prod/screenshot-2026-07-21-154031.png?q=w_1110,c_fill/f_webp","Article URL":"https://cnnespanol.cnn.com/2026/07/21/clima-y-tiempo/rios-europa-reducen-calor-sequia-trax","Severity":"Medium","Date":"2026-07-18","EFAS Jun-2026 Flow Category (Copernicus C3S)":"Much higher than average"},"geometry":{"type":"Point","coordinates":[27.3306,44.2039]}},
{"type":"Feature","properties":{"River":"Rhine, Ahr, Waal, Meuse (Germany / Netherlands)  (8 locations)","Country":null,"Location":null,"Latitude":null,"Longitude":null,"Description":null,"Image URL":null,"Article URL":null,"Severity":null,"Date":null,"EFAS Jun-2026 Flow Category (Copernicus C3S)":null},"geometry":null},
{"type":"Feature","properties":{"River":"Rhine","Country":"Netherlands","Location":"Lobith","Latitude":51.8624,"Longitude":6.1188,"Description":"Lowest water level ever recorded at this gauge; daily avg flow 771 m3/s, lowest for July since 1976","Image URL":null,"Article URL":"https://www.rijkswaterstaat.nl/nieuws/archief/2026/07/droogte-blijft-toenemen-rijn-op-laagste-punt-ooit","Severity":"High","Date":"2026-07-30","EFAS Jun-2026 Flow Category (Copernicus C3S)":"Highest"},"geometry":{"type":"Point","coordinates":[6.1188,51.8624]}},
{"type":"Feature","properties":{"River":"Rhine","Country":"Germany","Location":"Cologne","Latitude":50.9375,"Longitude":6.9603,"Description":"Historic-low gauge reading; boats stranded in marina","Image URL":"https://www.reuters.com/business/environment/rhine-water-level-drops-around-record-lows-costs-industry-rise-2026-07-31/","Article URL":"https://www.euronews.com/video/2026/08/02/rhine-river-hits-record-low-as-drought-grips-germany","Severity":"High","Date":"2026-08-02","EFAS Jun-2026 Flow Category (Copernicus C3S)":"Highest"},"geometry":{"type":"Point","coordinates":[6.9603,50.9375]}},
{"type":"Feature","properties":{"River":"Rhine","Country":"Germany","Location":"Kaub","Latitude":50.0878,"Longitude":7.761,"Description":"Barge chokepoint gauge at 21 cm, lowest since records began in 1880","Image URL":null,"Article URL":"https://www.bloomberg.com/news/articles/2026-08-04/rhine-set-for-more-disruption-after-hitting-lowest-on-record","Severity":"High","Date":"2026-08-04","EFAS Jun-2026 Flow Category (Copernicus C3S)":"Lowest"},"geometry":{"type":"Point","coordinates":[7.761,50.0878]}},
{"type":"Feature","properties":{"River":"Rhine","Country":"Germany","Location":"Düsseldorf","Latitude":51.2277,"Longitude":6.7735,"Description":"Citizen-filmed footage of extreme low water / exposed riverbed","Image URL":"https://img.lemde.fr/2022/08/01/0/0/4500/3000/664/0/75/0/f1ab439_1659319107735-dsf7435.JPG","Article URL":"https://www.youtube.com/watch?v=R0gp4xVK1Bw","Severity":"Medium","Date":"2026-07-31","EFAS Jun-2026 Flow Category (Copernicus C3S)":"Highest"},"geometry":{"type":"Point","coordinates":[6.7735,51.2277]}},
{"type":"Feature","properties":{"River":"Ahr (Rhine tributary)","Country":"Germany","Location":"Sinzig (Ahr-Rhine confluence)","Latitude":50.5386,"Longitude":7.2531,"Description":"Dry riverbed at the Ahr's confluence with the Rhine","Image URL":null,"Article URL":"https://cnnespanol.cnn.com/2026/07/21/clima-y-tiempo/rios-europa-reducen-calor-sequia-trax","Severity":"Medium","Date":"2026-07-14","EFAS Jun-2026 Flow Category (Copernicus C3S)":"Lowest"},"geometry":{"type":"Point","coordinates":[7.2531,50.5386]}},
{"type":"Feature","properties":{"River":"Mangfall","Country":"Germany","Location":"Bad Aibling / Willing, Bavaria","Latitude":47.8676,"Longitude":12.0142,"Description":"River briefly ran nearly dry for several hours (unusual, suspected human intervention/hydropower diversion); documented with timestamped photos","Image URL":"https://static.wixstatic.com/media/b69201_1ee4d581c90143be9a5330558202990f~mv2.jpeg/v1/fill/w_1110,h_833,al_c,q_85,usm_0.66_1.00_0.01,enc_avif,quality_auto/b69201_1ee4d581c90143be9a5330558202990f~mv2.jpeg","Article URL":"https://www.zerowastefamilie.com/post/erst-die-mangfall-dann-der-n%C3%A4chste-was-zu-tun-ist-wenn-ein-fluss-trockenf%C3%A4llt","Severity":"Medium","Date":"2026-07-12","EFAS Jun-2026 Flow Category (Copernicus C3S)":"Much lower than average"},"geometry":{"type":"Point","coordinates":[12.0142,47.8676]}},
{"type":"Feature","properties":{"River":"Waal (Rhine branch)","Country":"Netherlands","Location":"Nijmegen (Spiegelwaal inlet)","Latitude":51.8604,"Longitude":5.8703,"Description":"Side channel dry earlier in the year than ever recorded; ecological effects on birds/fish","Image URL":"https://cdn-img.newstory.nl/naturetoday/images/optimized/42269e86-5559-4500-b6ce-3e3addda3347.jpg&h=340&w=848&fmt=webp&v=1784799451","Article URL":"https://www.naturetoday.com/intl/nl/nature-reports/message/?msg=35625","Severity":"Medium","Date":"2026-07-26","EFAS Jun-2026 Flow Category (Copernicus C3S)":"Highest"},"geometry":{"type":"Point","coordinates":[5.8703,51.8604]}},
{"type":"Feature","properties":{"River":"Meuse/Waal","Country":"Netherlands","Location":"Heumen / Wijchen (near Nijmegen)","Latitude":51.7833,"Longitude":5.8333,"Description":"Water abstraction ban from ditches/streams for residents and businesses","Image URL":"https://images.cdn.nos.nl/2/4/J/a/4/f/siwAsjpDfWtuqurfkh6TeXBwKaAzyxLJjEcNehm/8x274x3984x2241-1280x720.webp","Article URL":"https://nos.nl/artikel/2622907-rivieren-staan-uitzonderlijk-laag-voor-juli-ik-schrik-ervan","Severity":"Medium","Date":"2026-07-15","EFAS Jun-2026 Flow Category (Copernicus C3S)":"Highest"},"geometry":{"type":"Point","coordinates":[5.8333,51.7833]}},
{"type":"Feature","properties":{"River":"Po (Italy)  (4 locations)","Country":null,"Location":null,"Latitude":null,"Longitude":null,"Description":null,"Image URL":null,"Article URL":null,"Severity":null,"Date":null,"EFAS Jun-2026 Flow Category (Copernicus C3S)":null},"geometry":null},
{"type":"Feature","properties":{"River":"Po","Country":"Italy","Location":"Turin","Latitude":45.0703,"Longitude":7.6869,"Description":"Small dry islands formed near Ponte Vittorio; algae bloom","Image URL":"https://i2.res.24o.it/images2010/S24/Documenti/2026/08/01/Immagini/Ritagli/67e596cecbd12f16bad24b278320f458-U03365468086qiH-1440x752@IlSole24Ore-Web.jpg?r=650x341","Article URL":"https://en.ilsole24ore.com/art/observatory-drought-worsens-criticality-rises-northern-regions-face-difficulties-AJ3k2Ob","Severity":"Medium","Date":"2026-08-01","EFAS Jun-2026 Flow Category (Copernicus C3S)":"Much lower than average"},"geometry":{"type":"Point","coordinates":[7.6869,45.0703]}},
{"type":"Feature","properties":{"River":"Po","Country":"Italy","Location":"Torricella di Sissa (Parma)","Latitude":44.9506,"Longitude":10.2331,"Description":"Floating docks and boats left stranded on exposed sand","Image URL":"https://citynews-parmatoday.stgy.ovh/~media/horizontal-hi/15857259911588/fiume-secca-torricella.jpg","Article URL":"https://www.parmatoday.it/attualita/po-ai-minimi-a-torricella-di-sissa-barche-in-secca-il-fiume-si-ritira.html","Severity":"High","Date":"2026-07-10","EFAS Jun-2026 Flow Category (Copernicus C3S)":"Lowest"},"geometry":{"type":"Point","coordinates":[10.2331,44.9506]}},
{"type":"Feature","properties":{"River":"Po","Country":"Italy","Location":"Cremona","Latitude":45.1333,"Longitude":10.0227,"Description":"Record low -8.59 m below hydrometric zero (31 Jul 2026), breaking the June-2022 record; confirmed by Copernicus Sentinel-2 imagery","Image URL":null,"Article URL":"https://www.geopop.it/il-livello-del-fiume-po-mai-stato-cosi-basso-il-mare-risale-per-25-km-nel-delta-e-emergenza-siccita/","Severity":"High","Date":"2026-07-31","EFAS Jun-2026 Flow Category (Copernicus C3S)":"Lowest"},"geometry":{"type":"Point","coordinates":[10.0227,45.1333]}},
{"type":"Feature","properties":{"River":"Po","Country":"Italy","Location":"Po Delta / Alto Polesine (Veneto)","Latitude":44.95,"Longitude":12.35,"Description":"Seawater intrusion up to 25 km inland; blue crab stranded on dry riverbed, symbol of the crisis","Image URL":null,"Article URL":"https://www.legambiente.emiliaromagna.it/2026/07/11/fiume-po-in-secca/","Severity":"High","Date":"2026-07-11","EFAS Jun-2026 Flow Category (Copernicus C3S)":"Higher than average"},"geometry":{"type":"Point","coordinates":[12.35,44.95]}},
{"type":"Feature","properties":{"River":"Loire, Doubs, Dive, Mignon, Garonne, Rhône/Seine (France)  (10 locations)","Country":null,"Location":null,"Latitude":null,"Longitude":null,"Description":null,"Image URL":null,"Article URL":null,"Severity":null,"Date":null,"EFAS Jun-2026 Flow Category (Copernicus C3S)":null},"geometry":null},
{"type":"Feature","properties":{"River":"Loire","Country":"France","Location":"Orléans","Latitude":47.9029,"Longitude":1.9093,"Description":"Partially dried riverbed, large sandbanks weeks earlier than usual","Image URL":"https://www.sudradio.fr/wp-content/uploads/2026/07/e3648aff18ff05d893abf413c3cd39aeacf148d7.jpg","Article URL":"https://www.sudradio.fr/societe/la-loire-en-alerte-eprouvee-par-une-secheresse-exceptionnelle","Severity":"Medium","Date":"2026-07-26","EFAS Jun-2026 Flow Category (Copernicus C3S)":"Lowest"},"geometry":{"type":"Point","coordinates":[1.9093,47.9029]}},
{"type":"Feature","properties":{"River":"Loire","Country":"France","Location":"Ancenis-Varades (Loire-Atlantique)","Latitude":47.3665,"Longitude":-1.1778,"Description":"Secondary channel behind the Varades bridge completely dried up","Image URL":"https://france3-regions.franceinfo.fr/image/xEHZ0ESb9WG88vxp-5L6BObaiBc/930x620/filters:format(webp)/regions/2026/07/12/6a535de6a8879926946003.jpg","Article URL":"https://france3-regions.franceinfo.fr/pays-de-la-loire/loire-atlantique/la-loire-fortement-eprouvee-par-la-secheresse-3385483.html","Severity":"Medium","Date":"2026-07-10","EFAS Jun-2026 Flow Category (Copernicus C3S)":"Lowest"},"geometry":{"type":"Point","coordinates":[-1.1778,47.3665]}},
{"type":"Feature","properties":{"River":"Doubs","Country":"France","Location":"Villers-le-Lac (Saut du Doubs)","Latitude":47.0605,"Longitude":6.7139,"Description":"Boat landing (Vedettes panoramiques) left high and dry; pools reduced to puddles","Image URL":"https://france3-regions.franceinfo.fr/image/ylEwa0bu60viDKCt5IkmyKfvZQk/930x620/filters:format(webp)/regions/2026/07/27/6a677ceb52f0a517547431.jpg","Article URL":"https://france3-regions.franceinfo.fr/bourgogne-franche-comte/doubs/en-images-cascades-silencieuses-sources-taries-au-fil-du-doubs-la-riviere-assechee-redessine-les-paysages-c-est-tristement-magnifique-3393079.html","Severity":"Medium","Date":"2026-07-30","EFAS Jun-2026 Flow Category (Copernicus C3S)":"Lowest"},"geometry":{"type":"Point","coordinates":[6.7139,47.0605]}},
{"type":"Feature","properties":{"River":"Doubs (source)","Country":"France","Location":"Mouthe","Latitude":46.7089,"Longitude":6.1875,"Description":"Spring barely flowing, far below normal; risk of ceasing to flow entirely as in 2015/2018/2021/2022","Image URL":"https://france3-regions.franceinfo.fr/image/bnPuS50pIxYzLRnRs1gapQhj1nA/0x0:1920x1080/800x450/filters:format(webp)/regions/2026/07/28/6a6865d037eb6754800681.jpg","Article URL":"https://france3-regions.franceinfo.fr/bourgogne-franche-comte/doubs/en-images-cascades-silencieuses-sources-taries-au-fil-du-doubs-la-riviere-assechee-redessine-les-paysages-c-est-tristement-magnifique-3393079.html","Severity":"Medium","Date":"2026-07-30","EFAS Jun-2026 Flow Category (Copernicus C3S)":"Lowest"},"geometry":{"type":"Point","coordinates":[6.1875,46.7089]}},
{"type":"Feature","properties":{"River":"Dive","Country":"France","Location":"Rom (Deux-Sèvres)","Latitude":46.36,"Longitude":0.038,"Description":"Riverbed reduced to a dusty path, no water at all, very early in season","Image URL":null,"Article URL":"https://www.franceinfo.fr/environnement/evenements-meteorologiques-extremes/secheresse/secheresse-precoce-16-des-cours-d-eau-francais-sont-deja-a-sec-les-pecheurs-et-defenseurs-de-l-environnement-mobilises-pour-sauver-les-poissons_8100095.html","Severity":"High","Date":"2026-06 (reported)","EFAS Jun-2026 Flow Category (Copernicus C3S)":"Lowest"},"geometry":{"type":"Point","coordinates":[0.038,46.36]}},
{"type":"Feature","properties":{"River":"Mignon","Country":"France","Location":"Deux-Sèvres (Mauzé-sur-le-Mignon area)","Latitude":46.1975,"Longitude":-0.6531,"Description":"Dry as early as June, a first for this time of year","Image URL":null,"Article URL":"https://www.franceinfo.fr/environnement/evenements-meteorologiques-extremes/secheresse/secheresse-precoce-16-des-cours-d-eau-francais-sont-deja-a-sec-les-pecheurs-et-defenseurs-de-l-environnement-mobilises-pour-sauver-les-poissons_8100095.html","Severity":"High","Date":"2026-06 (reported)","EFAS Jun-2026 Flow Category (Copernicus C3S)":"Lowest"},"geometry":{"type":"Point","coordinates":[-0.6531,46.1975]}},
{"type":"Feature","properties":{"River":"Multiple (national)","Country":"France","Location":"France (nationwide)","Latitude":46.6,"Longitude":1.9,"Description":"43% of small French rivers (1,373 watercourses) in flow rupture/dry as of 1 Aug 2026 - double June's figure, worse than 2022","Image URL":null,"Article URL":"https://contre-attaque.net/2026/08/06/rupture-ecologique-une-secheresse-inedite-et-un-gouvernement-qui-sacrifie-les-ressources-en-eau/","Severity":"High","Date":"2026-08-01","EFAS Jun-2026 Flow Category (Copernicus C3S)":"Lowest"},"geometry":{"type":"Point","coordinates":[1.9,46.6]}},
{"type":"Feature","properties":{"River":"Garonne","Country":"France","Location":"Golfech","Latitude":44.1128,"Longitude":0.8888,"Description":"Nuclear reactor output cut due to low/warm river flow","Image URL":null,"Article URL":"https://www.no2nuclearpower.org.uk/news/france-2-7-26/","Severity":"Medium","Date":"2026-07-02","EFAS Jun-2026 Flow Category (Copernicus C3S)":"Lowest"},"geometry":{"type":"Point","coordinates":[0.8888,44.1128]}},
{"type":"Feature","properties":{"River":"Rhône/Garonne/Seine","Country":"France","Location":"Multiple nuclear sites (Bugey, Golfech, etc.)","Latitude":46.6034,"Longitude":1.8883,"Description":"Late-June heatwave forced reactor output cuts as rivers neared thermal cooling limits","Image URL":null,"Article URL":"https://www.pv-magazine.com/2026/07/01/when-the-rivers-ran-warm-how-a-heatwave-thinned-frances-nuclear-export-cushion/","Severity":"Medium","Date":"2026-07-01","EFAS Jun-2026 Flow Category (Copernicus C3S)":"Much lower than average"},"geometry":{"type":"Point","coordinates":[1.8883,46.6034]}},
{"type":"Feature","properties":{"River":"Thames, Wye, Wales (UK)  (3 locations)","Country":null,"Location":null,"Latitude":null,"Longitude":null,"Description":null,"Image URL":null,"Article URL":null,"Severity":null,"Date":null,"EFAS Jun-2026 Flow Category (Copernicus C3S)":"Lowest"},"geometry":null},
{"type":"Feature","properties":{"River":"Thames","Country":"UK","Location":"London","Latitude":51.5074,"Longitude":-0.1278,"Description":"Boats stranded on exposed riverbed as water levels dropped","Image URL":"https://hermes.media.static.aol.com/media/2026/07/29/98d2198d-8a9a-3e78-8e33-24587d68f707/f8cd2e8b-0b81-48ef-9a63-af3471446c6f.jpg","Article URL":"https://www.aol.com/articles/pictures-show-scale-drought-across-165625000.html","Severity":"Medium","Date":"2026-07-24","EFAS Jun-2026 Flow Category (Copernicus C3S)":null},"geometry":{"type":"Point","coordinates":[-0.1278,51.5074]}},
{"type":"Feature","properties":{"River":"Wye","Country":"UK","Location":"Hereford","Latitude":52.0567,"Longitude":-2.714,"Description":"Riverbed left bare after weeks without rain","Image URL":null,"Article URL":"https://www.aol.com/articles/pictures-show-scale-drought-across-165625000.html","Severity":"Medium","Date":"2026-07-25","EFAS Jun-2026 Flow Category (Copernicus C3S)":"Higher than average"},"geometry":{"type":"Point","coordinates":[-2.714,52.0567]}},
{"type":"Feature","properties":{"River":"Multiple","Country":"UK","Location":"Wales (nationwide)","Latitude":52.1307,"Longitude":-3.7837,"Description":"Drought status extended across all of Wales; driest July in 190 years","Image URL":null,"Article URL":"https://www.watermagazine.co.uk/2026/07/31/drought-status-extended-across-all-of-wales-as-environment-continues-to-feel-the-strain/","Severity":"High","Date":"2026-07-31","EFAS Jun-2026 Flow Category (Copernicus C3S)":"Higher than average"},"geometry":{"type":"Point","coordinates":[-3.7837,52.1307]}},
{"type":"Feature","properties":{"River":"Vistula, Warta, Mszanka, San (Poland)  (5 locations)","Country":null,"Location":null,"Latitude":null,"Longitude":null,"Description":null,"Image URL":null,"Article URL":null,"Severity":null,"Date":null,"EFAS Jun-2026 Flow Category (Copernicus C3S)":"Higher than average"},"geometry":null},
{"type":"Feature","properties":{"River":"Vistula","Country":"Poland","Location":"Warsaw","Latitude":52.2297,"Longitude":21.0122,"Description":"Record low of 19 cm vs ~230 cm normal","Image URL":"https://english.news.cn/europe/20260714/f801627b584d42e19d604d3ca47524ce/20260714f8bd88c49bf4464794abac9a99cdb8cd_20260714b6778a3a37974e1abcc496fc79b2a950.jpg","Article URL":"https://english.news.cn/europe/20260714/f801627b584d42e19d604d3ca47524ce/c.html","Severity":"High","Date":"2026-07-14","EFAS Jun-2026 Flow Category (Copernicus C3S)":null},"geometry":{"type":"Point","coordinates":[21.0122,52.2297]}},
{"type":"Feature","properties":{"River":"Vistula","Country":"Poland","Location":"Annopol (Lubelskie)","Latitude":50.8642,"Longitude":21.859,"Description":"Record-low Vistula level documented by state press agency photographer","Image URL":null,"Article URL":"https://radio.lublin.pl/2026/08/rekordowo-niski-poziom-wisly-susza-hydrologiczna-nie-odpuszcza-zdjecia/","Severity":"High","Date":"2026-08-05","EFAS Jun-2026 Flow Category (Copernicus C3S)":"Lowest"},"geometry":{"type":"Point","coordinates":[21.859,50.8642]}},
{"type":"Feature","properties":{"River":"Warta","Country":"Poland","Location":"Poznań","Latitude":52.4064,"Longitude":16.9252,"Description":"Water level down to 168 cm, among the lowest for the date on record","Image URL":null,"Article URL":"https://agroprofil.pl/wiadomosci/susza-w-polsce-2026-raport-iung/","Severity":"Medium","Date":"2026-04-28 (early season baseline)","EFAS Jun-2026 Flow Category (Copernicus C3S)":"Lowest"},"geometry":{"type":"Point","coordinates":[16.9252,52.4064]}},
{"type":"Feature","properties":{"River":"Mszanka","Country":"Poland","Location":"Mszana Dolna (Małopolska)","Latitude":49.6767,"Longitude":20.1022,"Description":"River shrunk from \"a great river\" to \"a little stream\"; town introduced nightly municipal water cutoffs (11pm-5am) announced via social media","Image URL":null,"Article URL":"https://tvn24.pl/tvnmeteo/polska/mszana-dolna-byla-wielka-rzeka-jest-rzeczka-susza-taka-ze-nocy-nie-maja-wody-st9171433","Severity":"High","Date":"2026-08-03","EFAS Jun-2026 Flow Category (Copernicus C3S)":"Lowest"},"geometry":{"type":"Point","coordinates":[20.1022,49.6767]}},
{"type":"Feature","properties":{"River":"San","Country":"Poland","Location":"(various, Bieszczady region)","Latitude":49.5,"Longitude":22.3,"Description":"National coverage cites Facebook-sourced photos of exposed sandy islets on multiple rivers, incl. San, shared by hydrology enthusiasts group \"Świat Wody\"","Image URL":null,"Article URL":"https://zero.pl/news/susza-2026-zakaz-poboru-wody-w-625-gminach-mapa-i-skala-problemu","Severity":"Medium","Date":"2026-08-03","EFAS Jun-2026 Flow Category (Copernicus C3S)":"Much lower than average"},"geometry":{"type":"Point","coordinates":[22.3,49.5]}},
{"type":"Feature","properties":{"River":"Sil, Serpis/Amadorio-Guadalest (Spain)  (2 locations)","Country":null,"Location":null,"Latitude":null,"Longitude":null,"Description":null,"Image URL":null,"Article URL":null,"Severity":null,"Date":null,"EFAS Jun-2026 Flow Category (Copernicus C3S)":"Lowest"},"geometry":null},
{"type":"Feature","properties":{"River":"Sil","Country":"Spain","Location":"O Barco de Valdeorras (Ourense)","Latitude":42.4155,"Longitude":-6.9902,"Description":"Severe drought on the river; province entered pre-alert status; only 9 l/m2 rain in 2 months","Image URL":null,"Article URL":"https://www.laregion.es/provincia/provincia-ourense-entra-prealerta-sequia-bajo-caudal-rios_1_20260804-4374686.html","Severity":"Medium","Date":"2026-08-04","EFAS Jun-2026 Flow Category (Copernicus C3S)":null},"geometry":{"type":"Point","coordinates":[-6.9902,42.4155]}},
{"type":"Feature","properties":{"River":"Serpis / Amadorio-Guadalest (reservoirs)","Country":"Spain","Location":"Marina Baja, Alicante","Latitude":38.65,"Longitude":-0.18,"Description":"'Severe scarcity' (alert, index 0.27) due to low Amadorio/Guadalest reservoir levels; Serpis in 'moderate scarcity' (index 0.47)","Image URL":null,"Article URL":"https://www.infobae.com/espana/2026/07/23/la-sequia-golpea-a-europa-casas-flotantes-sobre-tierra-rios-bajo-minimos-que-paralizan-a-los-barcos-mercantes-y-bombeos-de-emergencia-en-presas-y-centrales-nucleares/","Severity":"High","Date":"2026-06 (report)","EFAS Jun-2026 Flow Category (Copernicus C3S)":"Much lower than average"},"geometry":{"type":"Point","coordinates":[-0.18,38.65]}},
{"type":"Feature","properties":{"River":"Lake Balaton (Hungary — context, not a river)  (1 locations)","Country":null,"Location":null,"Latitude":null,"Longitude":null,"Description":null,"Image URL":null,"Article URL":null,"Severity":null,"Date":null,"EFAS Jun-2026 Flow Category (Copernicus C3S)":"Lower than average"},"geometry":null},
{"type":"Feature","properties":{"River":"Lake Balaton (context, not a river)","Country":"Hungary","Location":"Siófok","Latitude":46.9091,"Longitude":18.058,"Description":"Lake shrunk severely, walkable in former swim zones","Image URL":null,"Article URL":"https://en.protothema.gr/2026/08/01/rhine-and-danube-rivers-dry-up-amid-drought-and-heatwave/","Severity":"Medium","Date":"2026-08-01","EFAS Jun-2026 Flow Category (Copernicus C3S)":null},"geometry":{"type":"Point","coordinates":[18.058,46.9091]}},
{"type":"Feature","properties":{"River":null,"Country":null,"Location":null,"Latitude":null,"Longitude":null,"Description":null,"Image URL":null,"Article URL":null,"Severity":null,"Date":null,"EFAS Jun-2026 Flow Category (Copernicus C3S)":"Lowest"},"geometry":null}
]
}
